{"type": "FeatureCollection", "features": [ {"type": "Feature", "properties": {"norad_id": 40701, "name": "GAOFEN-8", "group": "resource", "lat": 21.398419225763377, "lon": 172.58971068989587, "alt_km": 448.0058247280149, "timestamp": "2025-12-22T23:36:20.356919+00:00", "meta": {"OBJECT_NAME": "GAOFEN-8", "OBJECT_ID": "2015-030A", "EPOCH": "2025-12-22T09:28:00.859296", "MEAN_MOTION": 15.38873493, "ECCENTRICITY": 0.00117643, "INCLINATION": 97.6904, "RA_OF_ASC_NODE": 175.0072, "ARG_OF_PERICENTER": 104.66, "MEAN_ANOMALY": 255.595, "EPHEMERIS_TYPE": 0, "CLASSIFICATION_TYPE": "U", "NORAD_CAT_ID": 40701, "ELEMENT_SET_NO": 999, "REV_AT_EPOCH": 58419, "BSTAR": 0.00072175287, "MEAN_MOTION_DOT": 0.00027798, "MEAN_MOTION_DDOT": 0}, "tle": {"line1": "1 40701U 15030A   25356.39445439  .00027798  00000+0  72175-3 0  9990", "line2": "2 40701  97.6904 175.0072 0011764 104.6600 255.5950 15.38873493584196"}}, "geometry": {"type": "Point", "coordinates": [172.58971068989587, 21.398419225763377]}}, {"type": "Feature", "properties": {"norad_id": 40718, "name": "CARBONITE 1 (CBNT-1)", "group": "resource", "lat": 52.02338644014831, "lon": 167.6753135495332, "alt_km": 616.7005714188408, "timestamp": "2025-12-22T23:36:20.356929+00:00", "meta": {"OBJECT_NAME": "CARBONITE 1 (CBNT-1)", "OBJECT_ID": "2015-032D", "EPOCH": "2025-12-22T13:39:03.823200", "MEAN_MOTION": 14.8278387, "ECCENTRICITY": 0.00150786, "INCLINATION": 97.6396, "RA_OF_ASC_NODE": 177.1797, "ARG_OF_PERICENTER": 149.4697, "MEAN_ANOMALY": 210.7398, "EPHEMERIS_TYPE": 0, "CLASSIFICATION_TYPE": "U", "NORAD_CAT_ID": 40718, "ELEMENT_SET_NO": 999, "REV_AT_EPOCH": 56316, "BSTAR": 0.00016316059, "MEAN_MOTION_DOT": 1.271e-05, "MEAN_MOTION_DDOT": 0}, "tle": {"line1": "1 40718U 15032D   25356.56879425  .00001271  00000+0  16316-3 0  9998", "line2": "2 40718  97.6396 177.1797 0015078 149.4697 210.7398 14.82783870563161"}}, "geometry": {"type": "Point", "coordinates": [167.6753135495332, 52.02338644014831]}}, {"type": "Feature", "properties": {"norad_id": 40878, "name": "YAOGAN-27", "group": "resource", "lat": 79.35457609779019, "lon": -122.36784686890212, "alt_km": 1198.0056409264598, "timestamp": "2025-12-22T23:36:20.356939+00:00", "meta": {"OBJECT_NAME": "YAOGAN-27", "OBJECT_ID": "2015-040A", "EPOCH": "2025-12-22T14:00:35.953344", "MEAN_MOTION": 13.16059527, "ECCENTRICITY": 0.00075848, "INCLINATION": 100.1008, "RA_OF_ASC_NODE": 345.7583, "ARG_OF_PERICENTER": 262.4718, "MEAN_ANOMALY": 97.5534, "EPHEMERIS_TYPE": 0, "CLASSIFICATION_TYPE": "U", "NORAD_CAT_ID": 40878, "ELEMENT_SET_NO": 999, "REV_AT_EPOCH": 49443, "BSTAR": -0.00032389042, "MEAN_MOTION_DOT": -1.65e-06, "MEAN_MOTION_DDOT": 0}, "tle": {"line1": "1 40878U 15040A   25356.58374946 -.00000165  00000+0 -32389-3 0  9995", "line2": "2 40878 100.1008 345.7583 0007584 262.4718  97.5534 13.16059527494434"}}, "geometry": {"type": "Point", "coordinates": [-122.36784686890212, 79.35457609779019]}}, {"type": "Feature", "properties": {"norad_id": 40894, "name": "GAOFEN-9 01", "group": "resource", "lat": -38.398545090782726, "lon": 41.61348106047911, "alt_km": 613.2564196271878, "timestamp": "2025-12-22T23:36:20.356949+00:00", "meta": {"OBJECT_NAME": "GAOFEN-9 01", "OBJECT_ID": "2015-047A", "EPOCH": "2025-12-22T14:03:35.564256", "MEAN_MOTION": 14.82445202, "ECCENTRICITY": 0.00275852, "INCLINATION": 97.6529, "RA_OF_ASC_NODE": 35.1156, "ARG_OF_PERICENTER": 2.5506, "MEAN_ANOMALY": 357.5844, "EPHEMERIS_TYPE": 0, "CLASSIFICATION_TYPE": "U", "NORAD_CAT_ID": 40894, "ELEMENT_SET_NO": 999, "REV_AT_EPOCH": 55402, "BSTAR": 0.00012965946, "MEAN_MOTION_DOT": 9.95e-06, "MEAN_MOTION_DDOT": 0}, "tle": {"line1": "1 40894U 15047A   25356.58582829  .00000995  00000+0  12966-3 0  9999", "line2": "2 40894  97.6529  35.1156 0027585   2.5506 357.5844 14.82445202554025"}}, "geometry": {"type": "Point", "coordinates": [41.61348106047911, -38.398545090782726]}}, {"type": "Feature", "properties": {"norad_id": 41026, "name": "YAOGAN-28", "group": "resource", "lat": -38.9991238248336, "lon": -51.45524304793153, "alt_km": 503.88893483531956, "timestamp": "2025-12-22T23:36:20.356959+00:00", "meta": {"OBJECT_NAME": "YAOGAN-28", "OBJECT_ID": "2015-064A", "EPOCH": "2025-12-22T14:46:16.870656", "MEAN_MOTION": 15.24501116, "ECCENTRICITY": 0.00126542, "INCLINATION": 97.2816, "RA_OF_ASC_NODE": 134.1301, "ARG_OF_PERICENTER": 94.7601, "MEAN_ANOMALY": 265.5082, "EPHEMERIS_TYPE": 0, "CLASSIFICATION_TYPE": "U", "NORAD_CAT_ID": 41026, "ELEMENT_SET_NO": 999, "REV_AT_EPOCH": 56375, "BSTAR": 0.00033636963, "MEAN_MOTION_DOT": 8.22e-05, "MEAN_MOTION_DDOT": 0}, "tle": {"line1": "1 41026U 15064A   25356.61547304  .00008220  00000+0  33637-3 0  9996", "line2": "2 41026  97.2816 134.1301 0012654  94.7601 265.5082 15.24501116563756"}}, "geometry": {"type": "Point", "coordinates": [-51.45524304793153, -38.9991238248336]}}, {"type": "Feature", "properties": {"norad_id": 41038, "name": "YAOGAN-29", "group": "resource", "lat": -45.834451902893115, "lon": -168.15940859231182, "alt_km": 626.7395397337841, "timestamp": "2025-12-22T23:36:20.356969+00:00", "meta": {"OBJECT_NAME": "YAOGAN-29", "OBJECT_ID": "2015-069A", "EPOCH": "2025-12-22T14:29:27.089664", "MEAN_MOTION": 14.8289083, "ECCENTRICITY": 6.102e-05, "INCLINATION": 98.0205, "RA_OF_ASC_NODE": 19.8067, "ARG_OF_PERICENTER": 173.1464, "MEAN_ANOMALY": 186.9757, "EPHEMERIS_TYPE": 0, "CLASSIFICATION_TYPE": "U", "NORAD_CAT_ID": 41038, "ELEMENT_SET_NO": 999, "REV_AT_EPOCH": 54445, "BSTAR": -3.167513e-06, "MEAN_MOTION_DOT": -8e-07, "MEAN_MOTION_DDOT": 0}, "tle": {"line1": "1 41038U 15069A   25356.60378576 -.00000080  00000+0 -31675-5 0  9996", "line2": "2 41038  98.0205  19.8067 0000610 173.1464 186.9757 14.82890830544454"}}, "geometry": {"type": "Point", "coordinates": [-168.15940859231182, -45.834451902893115]}}, {"type": "Feature", "properties": {"norad_id": 41167, "name": "KENT RIDGE 1", "group": "resource", "lat": -14.860683997847275, "lon": 52.17495698997842, "alt_km": 493.7625021405838, "timestamp": "2025-12-22T23:36:20.356980+00:00", "meta": {"OBJECT_NAME": "KENT RIDGE 1", "OBJECT_ID": "2015-077B", "EPOCH": "2025-12-22T14:31:48.262944", "MEAN_MOTION": 15.21706918, "ECCENTRICITY": 0.00085353, "INCLINATION": 14.9787, "RA_OF_ASC_NODE": 137.9309, "ARG_OF_PERICENTER": 270.1812, "MEAN_ANOMALY": 89.7532, "EPHEMERIS_TYPE": 0, "CLASSIFICATION_TYPE": "U", "NORAD_CAT_ID": 41167, "ELEMENT_SET_NO": 999, "REV_AT_EPOCH": 55414, "BSTAR": 0.0001544476, "MEAN_MOTION_DOT": 4.358e-05, "MEAN_MOTION_DDOT": 0}, "tle": {"line1": "1 41167U 15077B   25356.60541971  .00004358  00000+0  15445-3 0  9994", "line2": "2 41167  14.9787 137.9309 0008535 270.1812  89.7532 15.21706918554144"}}, "geometry": {"type": "Point", "coordinates": [52.17495698997842, -14.860683997847275]}}, {"type": "Feature", "properties": {"norad_id": 41194, "name": "GAOFEN-4", "group": "resource", "lat": 0.18180636710369055, "lon": -168.41023706648087, "alt_km": 35774.285494402364, "timestamp": "2025-12-22T23:36:20.356992+00:00", "meta": {"OBJECT_NAME": "GAOFEN-4", "OBJECT_ID": "2015-083A", "EPOCH": "2025-12-19T15:27:26.627616", "MEAN_MOTION": 1.00273138, "ECCENTRICITY": 0.0002945, "INCLINATION": 0.1878, "RA_OF_ASC_NODE": 81.7841, "ARG_OF_PERICENTER": 93.4275, "MEAN_ANOMALY": 250.8523, "EPHEMERIS_TYPE": 0, "CLASSIFICATION_TYPE": "U", "NORAD_CAT_ID": 41194, "ELEMENT_SET_NO": 999, "REV_AT_EPOCH": 3672, "BSTAR": 0, "MEAN_MOTION_DOT": -3.11e-06, "MEAN_MOTION_DDOT": 0}, "tle": {"line1": "1 41194U 15083A   25353.64405819 -.00000311  00000+0  00000+0 0  9995", "line2": "2 41194   0.1878  81.7841 0002945  93.4275 250.8523  1.00273138 36722"}}, "geometry": {"type": "Point", "coordinates": [-168.41023706648087, 0.18180636710369055]}}, {"type": "Feature", "properties": {"norad_id": 41240, "name": "JASON-3", "group": "resource", "lat": -65.97745546358867, "lon": 50.2428898827214, "alt_km": 1311.7409515628042, "timestamp": "2025-12-22T23:36:20.357003+00:00", "meta": {"OBJECT_NAME": "JASON-3", "OBJECT_ID": "2016-002A", "EPOCH": "2025-12-22T14:44:34.932480", "MEAN_MOTION": 12.87626934, "ECCENTRICITY": 0.00072584, "INCLINATION": 66.0401, "RA_OF_ASC_NODE": 137.0639, "ARG_OF_PERICENTER": 271.3803, "MEAN_ANOMALY": 88.6385, "EPHEMERIS_TYPE": 0, "CLASSIFICATION_TYPE": "U", "NORAD_CAT_ID": 41240, "ELEMENT_SET_NO": 999, "REV_AT_EPOCH": 46451, "BSTAR": 4.900705e-05, "MEAN_MOTION_DOT": -5e-07, "MEAN_MOTION_DDOT": 0}, "tle": {"line1": "1 41240U 16002A   25356.61429320 -.00000050  00000+0  49007-4 0  9997", "line2": "2 41240  66.0401 137.0639 0007258 271.3803  88.6385 12.87626934464511"}}, "geometry": {"type": "Point", "coordinates": [50.2428898827214, -65.97745546358867]}}, {"type": "Feature", "properties": {"norad_id": 41335, "name": "SENTINEL-3A", "group": "resource", "lat": 17.694704057938687, "lon": 59.07581991372595, "alt_km": 802.8769783743901, "timestamp": "2025-12-22T23:36:20.357042+00:00", "meta": {"OBJECT_NAME": "SENTINEL-3A", "OBJECT_ID": "2016-011A", "EPOCH": "2025-12-22T11:44:24.548064", "MEAN_MOTION": 14.26734358, "ECCENTRICITY": 8.927e-05, "INCLINATION": 98.6301, "RA_OF_ASC_NODE": 61.3656, "ARG_OF_PERICENTER": 95.0584, "MEAN_ANOMALY": 265.0698, "EPHEMERIS_TYPE": 0, "CLASSIFICATION_TYPE": "U", "NORAD_CAT_ID": 41335, "ELEMENT_SET_NO": 999, "REV_AT_EPOCH": 51286, "BSTAR": 7.5889732e-05, "MEAN_MOTION_DOT": 1.4e-06, "MEAN_MOTION_DDOT": 0}, "tle": {"line1": "1 41335U 16011A   25356.48917301  .00000140  00000+0  75890-4 0  9996", "line2": "2 41335  98.6301  61.3656 0000892  95.0584 265.0698 14.26734358512863"}}, "geometry": {"type": "Point", "coordinates": [59.07581991372595, 17.694704057938687]}}]}